[
  {
    "OBJECT_NAME": "STARLINK-31538",
    "OBJECT_ID": "24073Q",
    "EPOCH": "2025-11-11T05:56:14.220384",
    "MEAN_MOTION": 15.27595453,
    "ECCENTRICITY": 9.42e-05,
    "INCLINATION": 43.0007,
    "RA_OF_ASC_NODE": 266.7279,
    "ARG_OF_PERICENTER": 244.6124,
    "MEAN_ANOMALY": 115.463,
    "EPHEMERIS_TYPE": 0,
    "CLASSIFICATION_TYPE": "U",
    "NORAD_CAT_ID": 59525,
    "ELEMENT_SET_NO": 999,
    "REV_AT_EPOCH": 8806,
    "BSTAR": 0.00031662000000000004,
    "MEAN_MOTION_DOT": 8.465e-05,
    "MEAN_MOTION_DDOT": 0.0,
    "TLE_LINE1": "1 59525U 24073Q   25315.24738681  .00008465  00000+0  31662-3 0  9990",
    "TLE_LINE2": "2 59525  43.0007 266.7279 0000942 244.6124 115.4630 15.27595453 88067",
    "COMMENT": "Grouped by shell and plane from TLE"
  },
  {
    "OBJECT_NAME": "STARLINK-31564",
    "OBJECT_ID": "24073R",
    "EPOCH": "2025-11-11T05:45:07.075872",
    "MEAN_MOTION": 15.27597379,
    "ECCENTRICITY": 0.000111,
    "INCLINATION": 43.0024,
    "RA_OF_ASC_NODE": 266.6675,
    "ARG_OF_PERICENTER": 259.3964,
    "MEAN_ANOMALY": 100.6762,
    "EPHEMERIS_TYPE": 0,
    "CLASSIFICATION_TYPE": "U",
    "NORAD_CAT_ID": 59526,
    "ELEMENT_SET_NO": 999,
    "REV_AT_EPOCH": 8806,
    "BSTAR": 0.00021222,
    "MEAN_MOTION_DOT": 5.585e-05,
    "MEAN_MOTION_DDOT": 0.0,
    "TLE_LINE1": "1 59526U 24073R   25315.23966523  .00005585  00000+0  21222-3 0  9999",
    "TLE_LINE2": "2 59526  43.0024 266.6675 0001110 259.3964 100.6762 15.27597379 88060",
    "COMMENT": "Grouped by shell and plane from TLE"
  },
  {
    "OBJECT_NAME": "STARLINK-31452",
    "OBJECT_ID": "24073S",
    "EPOCH": "2025-11-11T06:48:02.232288",
    "MEAN_MOTION": 15.27579986,
    "ECCENTRICITY": 0.0001652,
    "INCLINATION": 43.0038,
    "RA_OF_ASC_NODE": 266.9971,
    "ARG_OF_PERICENTER": 282.5463,
    "MEAN_ANOMALY": 77.5204,
    "EPHEMERIS_TYPE": 0,
    "CLASSIFICATION_TYPE": "U",
    "NORAD_CAT_ID": 59527,
    "ELEMENT_SET_NO": 999,
    "REV_AT_EPOCH": 8806,
    "BSTAR": 7.413e-05,
    "MEAN_MOTION_DOT": 1.778e-05,
    "MEAN_MOTION_DDOT": 0.0,
    "TLE_LINE1": "1 59527U 24073S   25315.28335917  .00001778  00000+0  74130-4 0  9999",
    "TLE_LINE2": "2 59527  43.0038 266.9971 0001652 282.5463  77.5204 15.27579986 88068",
    "COMMENT": "Grouped by shell and plane from TLE"
  },
  {
    "OBJECT_NAME": "STARLINK-31513",
    "OBJECT_ID": "24073U",
    "EPOCH": "2025-11-11T06:45:01.523232",
    "MEAN_MOTION": 15.2760237,
    "ECCENTRICITY": 8.5e-05,
    "INCLINATION": 42.9996,
    "RA_OF_ASC_NODE": 263.4813,
    "ARG_OF_PERICENTER": 251.659,
    "MEAN_ANOMALY": 108.4169,
    "EPHEMERIS_TYPE": 0,
    "CLASSIFICATION_TYPE": "U",
    "NORAD_CAT_ID": 59529,
    "ELEMENT_SET_NO": 999,
    "REV_AT_EPOCH": 8810,
    "BSTAR": 0.00030147,
    "MEAN_MOTION_DOT": 8.049e-05,
    "MEAN_MOTION_DDOT": 0.0,
    "TLE_LINE1": "1 59529U 24073U   25315.28126763  .00008049  00000+0  30147-3 0  9995",
    "TLE_LINE2": "2 59529  42.9996 263.4813 0000850 251.6590 108.4169 15.27602370 88108",
    "COMMENT": "Grouped by shell and plane from TLE"
  },
  {
    "OBJECT_NAME": "STARLINK-31392",
    "OBJECT_ID": "24073V",
    "EPOCH": "2025-11-11T06:22:08.063040",
    "MEAN_MOTION": 15.27598111,
    "ECCENTRICITY": 0.0001182,
    "INCLINATION": 43.0009,
    "RA_OF_ASC_NODE": 266.8614,
    "ARG_OF_PERICENTER": 288.4488,
    "MEAN_ANOMALY": 71.6235,
    "EPHEMERIS_TYPE": 0,
    "CLASSIFICATION_TYPE": "U",
    "NORAD_CAT_ID": 59530,
    "ELEMENT_SET_NO": 999,
    "REV_AT_EPOCH": 8806,
    "BSTAR": 0.00019046,
    "MEAN_MOTION_DOT": 4.985e-05,
    "MEAN_MOTION_DDOT": 0.0,
    "TLE_LINE1": "1 59530U 24073V   25315.26537110  .00004985  00000+0  19046-3 0  9997",
    "TLE_LINE2": "2 59530  43.0009 266.8614 0001182 288.4488  71.6235 15.27598111 88063",
    "COMMENT": "Grouped by shell and plane from TLE"
  },
  {
    "OBJECT_NAME": "STARLINK-31619",
    "OBJECT_ID": "24073W",
    "EPOCH": "2025-11-11T06:01:47.037504",
    "MEAN_MOTION": 15.27584407,
    "ECCENTRICITY": 2.23e-05,
    "INCLINATION": 43.0008,
    "RA_OF_ASC_NODE": 266.7565,
    "ARG_OF_PERICENTER": 356.4437,
    "MEAN_ANOMALY": 3.6413,
    "EPHEMERIS_TYPE": 0,
    "CLASSIFICATION_TYPE": "U",
    "NORAD_CAT_ID": 59531,
    "ELEMENT_SET_NO": 999,
    "REV_AT_EPOCH": 8918,
    "BSTAR": 0.00012357,
    "MEAN_MOTION_DOT": 3.141e-05,
    "MEAN_MOTION_DDOT": 0.0,
    "TLE_LINE1": "1 59531U 24073W   25315.25123886  .00003141  00000+0  12357-3 0  9999",
    "TLE_LINE2": "2 59531  43.0008 266.7565 0000223 356.4437   3.6413 15.27584407 89182",
    "COMMENT": "Grouped by shell and plane from TLE"
  },
  {
    "OBJECT_NAME": "STARLINK-31509",
    "OBJECT_ID": "24073Y",
    "EPOCH": "2025-11-11T06:59:07.925280",
    "MEAN_MOTION": 15.2761524,
    "ECCENTRICITY": 7.72e-05,
    "INCLINATION": 43.0007,
    "RA_OF_ASC_NODE": 267.0624,
    "ARG_OF_PERICENTER": 245.7118,
    "MEAN_ANOMALY": 114.3653,
    "EPHEMERIS_TYPE": 0,
    "CLASSIFICATION_TYPE": "U",
    "NORAD_CAT_ID": 59533,
    "ELEMENT_SET_NO": 999,
    "REV_AT_EPOCH": 8806,
    "BSTAR": 0.0,
    "MEAN_MOTION_DOT": -1.955e-05,
    "MEAN_MOTION_DDOT": 0.0,
    "TLE_LINE1": "1 59533U 24073Y   25315.29106395 -.00001955  00000+0 -61487-4 0  9993",
    "TLE_LINE2": "2 59533  43.0007 267.0624 0000772 245.7118 114.3653 15.27615240 88060",
    "COMMENT": "Grouped by shell and plane from TLE"
  },
  {
    "OBJECT_NAME": "STARLINK-31958",
    "OBJECT_ID": "24106C",
    "EPOCH": "2025-11-11T05:30:25.730208",
    "MEAN_MOTION": 15.2758572,
    "ECCENTRICITY": 7.06e-05,
    "INCLINATION": 42.9984,
    "RA_OF_ASC_NODE": 267.0068,
    "ARG_OF_PERICENTER": 272.4489,
    "MEAN_ANOMALY": 87.6281,
    "EPHEMERIS_TYPE": 0,
    "CLASSIFICATION_TYPE": "U",
    "NORAD_CAT_ID": 59924,
    "ELEMENT_SET_NO": 999,
    "REV_AT_EPOCH": 8257,
    "BSTAR": 0.00013147,
    "MEAN_MOTION_DOT": 3.358e-05,
    "MEAN_MOTION_DDOT": 0.0,
    "TLE_LINE1": "1 59924U 24106C   25315.22946447  .00003358  00000+0  13147-3 0  9993",
    "TLE_LINE2": "2 59924  42.9984 267.0068 0000706 272.4489  87.6281 15.27585720 82571",
    "COMMENT": "Grouped by shell and plane from TLE"
  },
  {
    "OBJECT_NAME": "STARLINK-31978",
    "OBJECT_ID": "24111A",
    "EPOCH": "2025-11-11T05:44:31.265664",
    "MEAN_MOTION": 15.30190702,
    "ECCENTRICITY": 9.67e-05,
    "INCLINATION": 53.1606,
    "RA_OF_ASC_NODE": 266.1434,
    "ARG_OF_PERICENTER": 92.8163,
    "MEAN_ANOMALY": 267.2949,
    "EPHEMERIS_TYPE": 0,
    "CLASSIFICATION_TYPE": "U",
    "NORAD_CAT_ID": 60016,
    "ELEMENT_SET_NO": 999,
    "REV_AT_EPOCH": 8079,
    "BSTAR": 6.9807e-05,
    "MEAN_MOTION_DOT": 1.708e-05,
    "MEAN_MOTION_DDOT": 0.0,
    "TLE_LINE1": "1 60016U 24111A   25315.23925076  .00001708  00000+0  69807-4 0  9991",
    "TLE_LINE2": "2 60016  53.1606 266.1434 0000967  92.8163 267.2949 15.30190702 80794",
    "COMMENT": "Grouped by shell and plane from TLE"
  },
  {
    "OBJECT_NAME": "STARLINK-31987",
    "OBJECT_ID": "24111B",
    "EPOCH": "2025-11-11T04:01:21.480672",
    "MEAN_MOTION": 15.30196693,
    "ECCENTRICITY": 0.0001167,
    "INCLINATION": 53.162,
    "RA_OF_ASC_NODE": 266.4058,
    "ARG_OF_PERICENTER": 85.6878,
    "MEAN_ANOMALY": 274.4256,
    "EPHEMERIS_TYPE": 0,
    "CLASSIFICATION_TYPE": "U",
    "NORAD_CAT_ID": 60017,
    "ELEMENT_SET_NO": 999,
    "REV_AT_EPOCH": 8084,
    "BSTAR": 8.3082e-05,
    "MEAN_MOTION_DOT": 2.102e-05,
    "MEAN_MOTION_DDOT": 0.0,
    "TLE_LINE1": "1 60017U 24111B   25315.16760973  .00002102  00000+0  83082-4 0  9997",
    "TLE_LINE2": "2 60017  53.1620 266.4058 0001167  85.6878 274.4256 15.30196693 80844",
    "COMMENT": "Grouped by shell and plane from TLE"
  },
  {
    "OBJECT_NAME": "STARLINK-31984",
    "OBJECT_ID": "24111C",
    "EPOCH": "2025-11-11T03:50:43.475424",
    "MEAN_MOTION": 15.30190638,
    "ECCENTRICITY": 0.0001226,
    "INCLINATION": 53.1603,
    "RA_OF_ASC_NODE": 266.3575,
    "ARG_OF_PERICENTER": 76.3426,
    "MEAN_ANOMALY": 283.7711,
    "EPHEMERIS_TYPE": 0,
    "CLASSIFICATION_TYPE": "U",
    "NORAD_CAT_ID": 60018,
    "ELEMENT_SET_NO": 999,
    "REV_AT_EPOCH": 8073,
    "BSTAR": 3.5955e-05,
    "MEAN_MOTION_DOT": 7.06e-06,
    "MEAN_MOTION_DDOT": 0.0,
    "TLE_LINE1": "1 60018U 24111C   25315.16022541  .00000706  00000+0  35955-4 0  9994",
    "TLE_LINE2": "2 60018  53.1603 266.3575 0001226  76.3426 283.7711 15.30190638 80731",
    "COMMENT": "Grouped by shell and plane from TLE"
  },
  {
    "OBJECT_NAME": "STARLINK-31986",
    "OBJECT_ID": "24111D",
    "EPOCH": "2025-11-11T03:37:03.181728",
    "MEAN_MOTION": 15.30187082,
    "ECCENTRICITY": 0.000127,
    "INCLINATION": 53.1606,
    "RA_OF_ASC_NODE": 266.2976,
    "ARG_OF_PERICENTER": 82.1213,
    "MEAN_ANOMALY": 277.9932,
    "EPHEMERIS_TYPE": 0,
    "CLASSIFICATION_TYPE": "U",
    "NORAD_CAT_ID": 60019,
    "ELEMENT_SET_NO": 999,
    "REV_AT_EPOCH": 8089,
    "BSTAR": 3.766e-05,
    "MEAN_MOTION_DOT": 7.56e-06,
    "MEAN_MOTION_DDOT": 0.0,
    "TLE_LINE1": "1 60019U 24111D   25315.15073127  .00000756  00000+0  37660-4 0  9990",
    "TLE_LINE2": "2 60019  53.1606 266.2976 0001270  82.1213 277.9932 15.30187082 80893",
    "COMMENT": "Grouped by shell and plane from TLE"
  },
  {
    "OBJECT_NAME": "STARLINK-31883",
    "OBJECT_ID": "24111E",
    "EPOCH": "2025-11-11T07:14:01.000608",
    "MEAN_MOTION": 15.30208026,
    "ECCENTRICITY": 0.0001209,
    "INCLINATION": 53.1614,
    "RA_OF_ASC_NODE": 265.8192,
    "ARG_OF_PERICENTER": 84.0629,
    "MEAN_ANOMALY": 276.051,
    "EPHEMERIS_TYPE": 0,
    "CLASSIFICATION_TYPE": "U",
    "NORAD_CAT_ID": 60020,
    "ELEMENT_SET_NO": 999,
    "REV_AT_EPOCH": 8085,
    "BSTAR": 3.7698e-05,
    "MEAN_MOTION_DOT": 7.58e-06,
    "MEAN_MOTION_DDOT": 0.0,
    "TLE_LINE1": "1 60020U 24111E   25315.30140047  .00000758  00000+0  37698-4 0  9998",
    "TLE_LINE2": "2 60020  53.1614 265.8192 0001209  84.0629 276.0510 15.30208026 80853",
    "COMMENT": "Grouped by shell and plane from TLE"
  }
]